ONEWEB-0670             
1 55829U 23029AK  24110.93652550  .00000243  00000+0  62163-3 0  9997
2 55829  87.8921  86.5713 0001436  76.1275 284.0015 13.14501766 55877
ONEWEB-0671             
1 55830U 23029AL  24110.94795521  .00000037  00000+0  60230-4 0  9991
2 55830  87.9102 101.8601 0001647  85.6057 274.5264 13.19726160 54933
ONEWEB-0672             
1 55831U 23029AM  24110.91998053  .00000196  00000+0  44889-3 0  9991
2 55831  87.9182  71.2734 0002325  82.7613 277.3784 13.20771405 57091
ONEWEB-0673             
1 55832U 23029AN  24110.92426169  .00000089  00000+0  18910-3 0  9994
2 55832  87.9101 101.8327 0001668  91.2987 268.8336 13.19726732 54938
ONEWEB-0674             
1 55833U 23029AP  24110.90480087  .00000133  00000+0  32348-3 0  9993
2 55833  87.8916  86.5863 0001574  69.2315 290.8984 13.14501340 55859
ONEWEB-0675             
1 55834U 23029AQ  24110.94005936  .00000079  00000+0  16538-3 0  9996
2 55834  87.9106 101.8601 0002324  95.1506 264.9892 13.19724884 54952
ONEWEB-0720             
1 55835U 23029AR  24110.93216189  .00000203  00000+0  47402-3 0  9993
2 55835  87.9105 101.8629 0001570 101.9339 258.1969 13.19724721 54875
ONEWEB-0537             
1 56046U 23043A   24110.80212990  .00000782  00000+0  20128-2 0  9993
2 56046  87.9149  25.6856 0001934  83.9648 276.1703 13.16589234 55220
